NORAD_CAT_ID,OBJECT_NAME,OBJECT_TYPE,EPOCH,MEAN_MOTION,ECCENTRICITY,INCLINATION,RA_OF_ASC_NODE,ARG_OF_PERICENTER,MEAN_ANOMALY,BSTAR,MEAN_MOTION_DOT,MEAN_MOTION_DDOT,TLE_LINE0,TLE_LINE1,TLE_LINE2,SEMIMAJOR_AXIS,PERIOD,APOGEE,PERIGEE,DECAYED
53727.0,STARLINK-4701,PAYLOAD,2024-06-10 22:09:57,15.08847768,0.0001367,53.215,232.6708,67.9953,292.1184,0.00054073,8.33e-05,0.0,0 STARLINK-4701,1 53727U 22107AD  24162.92358207  .00008330  00000-0  54073-3 0  9993,2 53727  53.2150 232.6708 0001367  67.9953 292.1184 15.08847768 98420,6917.857,95.437,540.667,538.776,0.0
53727.0,STARLINK-4701,PAYLOAD,2024-06-11 04:31:30,15.08846756,0.0001513,53.216,231.4826,66.114,294.001,0.00040964,6.239e-05,0.0,0 STARLINK-4701,1 53727U 22107AD  24163.18854269  .00006239  00000-0  40964-3 0  9991,2 53727  53.2160 231.4826 0001513  66.1140 294.0010 15.08846756 97863,6917.86,95.437,540.771,538.678,0.0
53727.0,STARLINK-4701,PAYLOAD,2024-06-11 10:53:02,15.08850676,0.0001263,53.2147,230.2914,72.58,287.533,0.00042051,6.413e-05,0.0,0 STARLINK-4701,1 53727U 22107AD  24163.45349988  .00006413  00000-0  42051-3 0  9991,2 53727  53.2147 230.2914 0001263  72.5800 287.5330 15.08850676 98509,6917.848,95.437,540.586,538.839,0.0
53727.0,STARLINK-4701,PAYLOAD,2024-06-11 22:00:44,15.0885029,0.0001248,53.2147,228.2104,68.5787,291.5338,0.00028072,4.184e-05,0.0,0 STARLINK-4701,1 53727U 22107AD  24163.91717776  .00004184  00000-0  28072-3 0  9996,2 53727  53.2147 228.2104 0001248  68.5787 291.5338 15.08850290 98571,6917.849,95.437,540.577,538.851,0.0
53727.0,STARLINK-4701,PAYLOAD,2024-06-12 10:43:49,15.08840212,0.0001299,53.2169,225.8296,83.0379,277.076,5.1015e-05,5.24e-06,0.0,0 STARLINK-4701,1 53727U 22107AD  24164.44710123  .00000524  00000-0  51015-4 0  9992,2 53727  53.2169 225.8296 0001299  83.0379 277.0760 15.08840212 98059,6917.88,95.438,540.643,538.846,0.0
53727.0,STARLINK-4701,PAYLOAD,2024-06-13 10:34:36,15.08831152,0.0001371,53.218,221.3704,85.8567,274.2582,0.00025626,3.792e-05,0.0,0 STARLINK-4701,1 53727U 22107AD  24165.44070300  .00003792  00000-0  25626-3 0  9997,2 53727  53.2180 221.3704 0001371  85.8567 274.2582 15.08831152 98804,6917.907,95.438,540.721,538.824,0.0
53727.0,STARLINK-4701,PAYLOAD,2024-06-14 13:36:09,15.08838309,0.0001281,53.2164,216.3146,83.8886,276.2252,6.9028e-05,8.11e-06,0.0,0 STARLINK-4701,1 53727U 22107AD  24166.56678183  .00000811  00000-0  69028-4 0  9998,2 53727  53.2164 216.3146 0001281  83.8886 276.2252 15.08838309 98977,6917.886,95.438,540.637,538.864,0.0
53727.0,STARLINK-4701,PAYLOAD,2024-06-14 19:57:42,15.08836956,0.0001262,53.2162,215.1248,82.4516,277.662,5.9733e-05,6.63e-06,0.0,0 STARLINK-4701,1 53727U 22107AD  24166.83174325  .00000663  00000-0  59733-4 0  9994,2 53727  53.2162 215.1248 0001262  82.4516 277.6620 15.08836956 99015,6917.89,95.438,540.628,538.882,0.0
53727.0,STARLINK-4701,PAYLOAD,2024-06-15 10:16:10,15.08841804,0.0001247,53.2161,212.4486,82.5111,277.6023,5.1466e-05,5.31e-06,0.0,0 STARLINK-4701,1 53727U 22107AD  24167.42790088  .00000531  00000-0  51466-4 0  9999,2 53727  53.2161 212.4486 0001247  82.5111 277.6023 15.08841804 99108,6917.875,95.437,540.603,538.877,0.0
53727.0,STARLINK-4701,PAYLOAD,2024-06-15 19:48:29,15.08838984,0.0001217,53.2158,210.6641,79.7355,280.3775,6.5805e-05,7.6e-06,0.0,0 STARLINK-4701,1 53727U 22107AD  24167.82534241  .00000760  00000-0  65805-4 0  9996,2 53727  53.2158 210.6641 0001217  79.7355 280.3775 15.08838984 99168,6917.883,95.438,540.59,538.907,0.0
53727.0,STARLINK-4701,PAYLOAD,2024-06-16 11:42:20,15.08842791,0.0001246,53.2156,207.6914,90.0676,270.0459,7.5276e-05,9.1e-06,0.0,0 STARLINK-4701,1 53727U 22107AD  24168.48774053  .00000910  00000-0  75276-4 0  9996,2 53727  53.2156 207.6914 0001246  90.0676 270.0459 15.08842791 99266,6917.872,95.437,540.599,538.875,0.0
53727.0,STARLINK-4701,PAYLOAD,2024-06-17 19:30:04,15.0884215,0.0001422,53.2165,201.7437,89.7575,270.358,-5.0192e-05,-1.087e-05,0.0,0 STARLINK-4701,1 53727U 22107AD  24169.81254669 -.00001087  00000-0 -50192-4 0  9998,2 53727  53.2165 201.7437 0001422  89.7575 270.3580 15.08842150 98862,6917.874,95.437,540.723,538.755,0.0
53727.0,STARLINK-4701,PAYLOAD,2024-06-18 11:23:55,15.08839646,0.0001309,53.2156,198.7682,95.6445,264.4696,2.6884e-05,1.4e-06,0.0,0 STARLINK-4701,1 53727U 22107AD  24170.47494659  .00000140  00000-0  26884-4 0  9995,2 53727  53.2156 198.7682 0001309  95.6445 264.4696 15.08839646 99561,6917.881,95.438,540.652,538.841,0.0
53727.0,STARLINK-4701,PAYLOAD,2024-06-18 19:20:50,15.08839714,0.00013,53.2159,197.2812,96.3221,263.7919,5.5278e-05,5.92e-06,0.0,0 STARLINK-4701,1 53727U 22107AD  24170.80614569  .00000592  00000-0  55278-4 0  9996,2 53727  53.2159 197.2812 0001300  96.3221 263.7919 15.08839714 99616,6917.881,95.438,540.646,538.847,0.0
53727.0,STARLINK-4701,PAYLOAD,2024-06-19 11:14:42,15.08841364,0.0001289,53.2158,194.3083,93.0053,267.1087,8.3504e-05,1.041e-05,0.0,0 STARLINK-4701,1 53727U 22107AD  24171.46854416  .00001041  00000-0  83504-4 0  9999,2 53727  53.2158 194.3083 0001289  93.0053 267.1087 15.08841364 99119,6917.876,95.437,540.633,538.85,0.0
53727.0,STARLINK-4701,PAYLOAD,2024-06-20 07:54:43,15.08838586,0.000129,53.2156,190.442,94.0648,266.0491,4.1351e-05,3.7e-06,0.0,0 STARLINK-4701,1 53727U 22107AD  24172.32966733  .00000370  00000-0  41351-4 0  9999,2 53727  53.2156 190.4420 0001290  94.0648 266.0491 15.08838586 99841,6917.885,95.438,540.642,538.857,0.0
53727.0,STARLINK-4701,PAYLOAD,2024-06-21 10:56:16,15.08839557,0.0001347,53.2163,185.3876,93.5262,266.5884,7.378e-06,-1.7e-06,0.0,0 STARLINK-4701,1 53727U 22107AD  24173.45574768 -.00000170  00000-0  73780-5 0  9998,2 53727  53.2163 185.3876 0001347  93.5262 266.5884 15.08839557 99419,6917.882,95.438,540.679,538.815,0.0
53727.0,STARLINK-4701,PAYLOAD,2024-06-22 07:36:17,15.08834879,0.0001323,53.2162,181.5221,92.5057,267.6087,5.922e-06,-1.94e-06,0.0,0 STARLINK-4701,1 53727U 22107AD  24174.31687243 -.00000194  00000-0  59220-5 0  9996,2 53727  53.2162 181.5221 0001323  92.5057 267.6087 15.08834879100147,6917.896,95.438,540.676,538.846,0.0
53727.0,STARLINK-4701,PAYLOAD,2024-06-23 07:27:04,15.08838377,0.0001333,53.2161,177.0615,94.3971,265.7173,3.9165e-05,3.35e-06,0.0,0 STARLINK-4701,1 53727U 22107AD  24175.31047112  .00000335  00000-0  39165-4 0  9993,2 53727  53.2161 177.0615 0001333  94.3971 265.7173 15.08838377100297,6917.885,95.438,540.673,538.828,0.0
53727.0,STARLINK-4701,PAYLOAD,2024-06-24 04:07:05,15.08837821,0.0001328,53.2162,173.1991,100.9471,259.1671,5.2758e-05,5.52e-06,0.0,0 STARLINK-4701,1 53727U 22107AD  24176.17159232  .00000552  00000-0  52758-4 0  9999,2 53727  53.2162 173.1991 0001328 100.9471 259.1671 15.08837821 99824,6917.887,95.438,540.671,538.833,0.0
53727.0,STARLINK-4701,PAYLOAD,2024-06-24 08:53:14,15.08839132,0.000132,53.2161,172.3044,96.0428,264.0715,6.1627e-05,6.93e-06,0.0,0 STARLINK-4701,1 53727U 22107AD  24176.37031142  .00000693  00000-0  61627-4 0  9991,2 53727  53.2161 172.3044 0001320  96.0428 264.0715 15.08839132100455,6917.883,95.438,540.661,538.835,0.0
53727.0,STARLINK-4701,PAYLOAD,2024-06-25 05:33:15,15.08840755,0.0001386,53.2162,168.4361,89.1817,270.9334,4.2153e-05,3.83e-06,0.0,0 STARLINK-4701,1 53727U 22107AD  24177.23143160  .00000383  00000-0  42153-4 0  9990,2 53727  53.2162 168.4361 0001386  89.1817 270.9334 15.08840755 99982,6917.878,95.438,540.702,538.784,0.0
53727.0,STARLINK-4701,PAYLOAD,2024-06-25 07:08:38,15.08841286,0.0001395,53.2163,168.1396,90.296,269.8192,4.6214e-05,4.48e-06,0.0,0 STARLINK-4701,1 53727U 22107AD  24177.29767116  .00000448  00000-0  46214-4 0  9993,2 53727  53.2163 168.1396 0001395  90.2960 269.8192 15.08841286100599,6917.876,95.437,540.707,538.776,0.0
53727.0,STARLINK-4701,PAYLOAD,2024-06-25 19:51:44,15.08839011,0.0001506,53.2167,165.7608,82.8902,277.2261,2.6822e-05,1.39e-06,0.0,0 STARLINK-4701,1 53727U 22107AD  24177.82759380  .00000139  00000-0  26822-4 0  9996,2 53727  53.2167 165.7608 0001506  82.8902 277.2261 15.08839011100671,6917.883,95.438,540.79,538.707,0.0
53727.0,STARLINK-4701,PAYLOAD,2024-06-26 05:24:02,15.08838792,0.0001485,53.2164,163.9765,84.1911,275.9251,2.2758e-05,7.4e-07,0.0,0 STARLINK-4701,1 53727U 22107AD  24178.22503431  .00000074  00000-0  22758-4 0  9997,2 53727  53.2164 163.9765 0001485  84.1911 275.9251 15.08838792100739,6917.884,95.438,540.776,538.722,0.0
53727.0,STARLINK-4701,PAYLOAD,2024-06-27 05:14:50,15.08839876,0.0001531,53.2162,159.5183,81.6198,278.4967,3.7288e-05,3.05e-06,0.0,0 STARLINK-4701,1 53727U 22107AD  24179.21863453  .00000305  00000-0  37288-4 0  9991,2 53727  53.2162 159.5183 0001531  81.6198 278.4967 15.08839876100289,6917.881,95.438,540.805,538.687,0.0
53727.0,STARLINK-4701,PAYLOAD,2024-06-28 05:05:36,15.08840437,0.0001363,53.2157,155.0541,94.8847,265.2301,6.0637e-05,6.77e-06,0.0,0 STARLINK-4701,1 53727U 22107AD  24180.21223308  .00000677  00000-0  60637-4 0  9998,2 53727  53.2157 155.0541 0001363  94.8847 265.2301 15.08840437101037,6917.879,95.438,540.687,538.801,0.0
53727.0,STARLINK-4701,PAYLOAD,2024-06-29 04:56:23,15.08843903,0.0001141,53.2142,150.5983,85.4889,274.6233,6.3472e-05,7.23e-06,0.0,0 STARLINK-4701,1 53727U 22107AD  24181.20583194  .00000723  00000-0  63472-4 0  9992,2 53727  53.2142 150.5983 0001141  85.4889 274.6233 15.08843903100585,6917.868,95.437,540.523,538.944,0.0
53727.0,STARLINK-4701,PAYLOAD,2024-06-29 22:25:39,15.08830328,0.000112,53.2143,147.3285,90.5613,269.5508,-2.1248e-05,-6.26e-06,0.0,0 STARLINK-4701,1 53727U 22107AD  24181.93448644 -.00000626  00000-0 -21248-4 0  9991,2 53727  53.2143 147.3285 0001120  90.5613 269.5508 15.08830328101298,6917.91,95.438,540.55,539.0,0.0
53727.0,STARLINK-4701,PAYLOAD,2024-06-30 04:47:12,15.08831007,0.0001214,53.2149,146.1351,87.6603,272.4528,-2.0791e-05,-6.19e-06,0.0,0 STARLINK-4701,1 53727U 22107AD  24182.19944717 -.00000619  00000-0 -20791-4 0  9996,2 53727  53.2149 146.1351 0001214  87.6603 272.4528 15.08831007100733,6917.908,95.438,540.613,538.933,0.0
